{"type": "FeatureCollection", "features": [ {"type": "Feature", "properties": {"norad_id": 66899, "name": "STARLINK-36064", "group": "last-30-days", "lat": -27.467516806227472, "lon": -153.85318369710308, "alt_km": 408.230251526792, "timestamp": "2025-12-26T22:28:04.499203+00:00", "meta": {"OBJECT_NAME": "STARLINK-36064", "OBJECT_ID": "2025-283X", "EPOCH": "2025-12-26T18:00:02.998944", "MEAN_MOTION": 15.55244527, "ECCENTRICITY": 0.0001435, "INCLINATION": 53.1596, "RA_OF_ASC_NODE": 4.1057, "ARG_OF_PERICENTER": 88.2749, "MEAN_ANOMALY": 164.4045, "EPHEMERIS_TYPE": 0, "CLASSIFICATION_TYPE": "U", "NORAD_CAT_ID": 66899, "ELEMENT_SET_NO": 999, "REV_AT_EPOCH": 462, "BSTAR": -0.033291, "MEAN_MOTION_DOT": -0.02046526, "MEAN_MOTION_DDOT": 0}, "tle": {"line1": "1 66899U 25283X   25360.75003471 -.02046526  00000+0 -33291-1 0  9996", "line2": "2 66899  53.1596   4.1057 0001435  88.2749 164.4045 15.55244527  4623"}}, "geometry": {"type": "Point", "coordinates": [-153.85318369710308, -27.467516806227472]}}, {"type": "Feature", "properties": {"norad_id": 66900, "name": "STARLINK-36074", "group": "last-30-days", "lat": -28.871313324388193, "lon": -152.37822491765567, "alt_km": 408.2735855471965, "timestamp": "2025-12-26T22:28:04.499213+00:00", "meta": {"OBJECT_NAME": "STARLINK-36074", "OBJECT_ID": "2025-283Y", "EPOCH": "2025-12-26T18:00:02.998944", "MEAN_MOTION": 15.55245941, "ECCENTRICITY": 0.0001444, "INCLINATION": 53.1596, "RA_OF_ASC_NODE": 4.1017, "ARG_OF_PERICENTER": 94.4206, "MEAN_ANOMALY": 160.1751, "EPHEMERIS_TYPE": 0, "CLASSIFICATION_TYPE": "U", "NORAD_CAT_ID": 66900, "ELEMENT_SET_NO": 999, "REV_AT_EPOCH": 468, "BSTAR": -0.033314, "MEAN_MOTION_DOT": -0.02047851, "MEAN_MOTION_DDOT": 0}, "tle": {"line1": "1 66900U 25283Y   25360.75003471 -.02047851  00000+0 -33314-1 0  9997", "line2": "2 66900  53.1596   4.1017 0001444  94.4206 160.1751 15.55245941  4683"}}, "geometry": {"type": "Point", "coordinates": [-152.37822491765567, -28.871313324388193]}}, {"type": "Feature", "properties": {"norad_id": 66901, "name": "STARLINK-36043", "group": "last-30-days", "lat": -30.257857622172555, "lon": -150.8642456836862, "alt_km": 408.3858838634269, "timestamp": "2025-12-26T22:28:04.499223+00:00", "meta": {"OBJECT_NAME": "STARLINK-36043", "OBJECT_ID": "2025-283Z", "EPOCH": "2025-12-26T18:00:02.998944", "MEAN_MOTION": 15.55245275, "ECCENTRICITY": 0.0001404, "INCLINATION": 53.1596, "RA_OF_ASC_NODE": 4.0972, "ARG_OF_PERICENTER": 93.8099, "MEAN_ANOMALY": 162.7039, "EPHEMERIS_TYPE": 0, "CLASSIFICATION_TYPE": "U", "NORAD_CAT_ID": 66901, "ELEMENT_SET_NO": 999, "REV_AT_EPOCH": 468, "BSTAR": -0.033312, "MEAN_MOTION_DOT": -0.02047685, "MEAN_MOTION_DDOT": 0}, "tle": {"line1": "1 66901U 25283Z   25360.75003471 -.02047685  00000+0 -33312-1 0  9991", "line2": "2 66901  53.1596   4.0972 0001404  93.8099 162.7039 15.55245275  4689"}}, "geometry": {"type": "Point", "coordinates": [-150.8642456836862, -30.257857622172555]}}, {"type": "Feature", "properties": {"norad_id": 66902, "name": "STARLINK-35983", "group": "last-30-days", "lat": -31.626551720980633, "lon": -149.30626071235918, "alt_km": 408.51509697943766, "timestamp": "2025-12-26T22:28:04.499233+00:00", "meta": {"OBJECT_NAME": "STARLINK-35983", "OBJECT_ID": "2025-283AA", "EPOCH": "2025-12-26T18:00:02.998944", "MEAN_MOTION": 15.55240884, "ECCENTRICITY": 0.0001464, "INCLINATION": 53.1595, "RA_OF_ASC_NODE": 4.0932, "ARG_OF_PERICENTER": 94.7256, "MEAN_ANOMALY": 163.7072, "EPHEMERIS_TYPE": 0, "CLASSIFICATION_TYPE": "U", "NORAD_CAT_ID": 66902, "ELEMENT_SET_NO": 999, "REV_AT_EPOCH": 468, "BSTAR": -0.033217, "MEAN_MOTION_DOT": -0.02042209, "MEAN_MOTION_DDOT": 0}, "tle": {"line1": "1 66902U 25283AA  25360.75003471 -.02042209  00000+0 -33217-1 0  9993", "line2": "2 66902  53.1595   4.0932 0001464  94.7256 163.7072 15.55240884  4685"}}, "geometry": {"type": "Point", "coordinates": [-149.30626071235918, -31.626551720980633]}}, {"type": "Feature", "properties": {"norad_id": 66903, "name": "STARLINK-36077", "group": "last-30-days", "lat": -32.97489972239381, "lon": -147.70228536038923, "alt_km": 408.6491724188536, "timestamp": "2025-12-26T22:28:04.499243+00:00", "meta": {"OBJECT_NAME": "STARLINK-36077", "OBJECT_ID": "2025-283AB", "EPOCH": "2025-12-26T18:00:02.998944", "MEAN_MOTION": 15.55240439, "ECCENTRICITY": 0.0001502, "INCLINATION": 53.1593, "RA_OF_ASC_NODE": 4.0897, "ARG_OF_PERICENTER": 94.003, "MEAN_ANOMALY": 166.3466, "EPHEMERIS_TYPE": 0, "CLASSIFICATION_TYPE": "U", "NORAD_CAT_ID": 66903, "ELEMENT_SET_NO": 999, "REV_AT_EPOCH": 468, "BSTAR": -0.033221, "MEAN_MOTION_DOT": -0.02042421, "MEAN_MOTION_DDOT": 0}, "tle": {"line1": "1 66903U 25283AB  25360.75003471 -.02042421  00000+0 -33221-1 0  9995", "line2": "2 66903  53.1593   4.0897 0001502  94.0030 166.3466 15.55240439  4682"}}, "geometry": {"type": "Point", "coordinates": [-147.70228536038923, -32.97489972239381]}}, {"type": "Feature", "properties": {"norad_id": 66904, "name": "STARLINK-36059", "group": "last-30-days", "lat": -34.30081789805263, "lon": -146.05239619574354, "alt_km": 408.76784204795604, "timestamp": "2025-12-26T22:28:04.499255+00:00", "meta": {"OBJECT_NAME": "STARLINK-36059", "OBJECT_ID": "2025-283AC", "EPOCH": "2025-12-26T18:00:02.998944", "MEAN_MOTION": 15.55246177, "ECCENTRICITY": 0.0001434, "INCLINATION": 53.1596, "RA_OF_ASC_NODE": 4.0848, "ARG_OF_PERICENTER": 89.4196, "MEAN_ANOMALY": 172.8434, "EPHEMERIS_TYPE": 0, "CLASSIFICATION_TYPE": "U", "NORAD_CAT_ID": 66904, "ELEMENT_SET_NO": 999, "REV_AT_EPOCH": 468, "BSTAR": -0.033343, "MEAN_MOTION_DOT": -0.02049452, "MEAN_MOTION_DDOT": 0}, "tle": {"line1": "1 66904U 25283AC  25360.75003471 -.02049452  00000+0 -33343-1 0  9992", "line2": "2 66904  53.1596   4.0848 0001434  89.4196 172.8434 15.55246177  4689"}}, "geometry": {"type": "Point", "coordinates": [-146.05239619574354, -34.30081789805263]}}, {"type": "Feature", "properties": {"norad_id": 66905, "name": "STARLINK-36075", "group": "last-30-days", "lat": -35.60533134409634, "lon": -144.3455957756817, "alt_km": 408.7805371644499, "timestamp": "2025-12-26T22:28:04.499266+00:00", "meta": {"OBJECT_NAME": "STARLINK-36075", "OBJECT_ID": "2025-283AD", "EPOCH": "2025-12-26T18:00:02.998944", "MEAN_MOTION": 15.55244537, "ECCENTRICITY": 0.0001329, "INCLINATION": 53.1595, "RA_OF_ASC_NODE": 4.0816, "ARG_OF_PERICENTER": 92.3452, "MEAN_ANOMALY": 171.8364, "EPHEMERIS_TYPE": 0, "CLASSIFICATION_TYPE": "U", "NORAD_CAT_ID": 66905, "ELEMENT_SET_NO": 999, "REV_AT_EPOCH": 468, "BSTAR": -0.033308, "MEAN_MOTION_DOT": -0.02047373, "MEAN_MOTION_DDOT": 0}, "tle": {"line1": "1 66905U 25283AD  25360.75003471 -.02047373  00000+0 -33308-1 0  9994", "line2": "2 66905  53.1595   4.0816 0001329  92.3452 171.8364 15.55244537  4684"}}, "geometry": {"type": "Point", "coordinates": [-144.3455957756817, -35.60533134409634]}}, {"type": "Feature", "properties": {"norad_id": 66906, "name": "1998-067XS", "group": "last-30-days", "lat": 3.604465993878596, "lon": -110.8856771902794, "alt_km": 413.3897929408131, "timestamp": "2025-12-26T22:28:04.499278+00:00", "meta": {"OBJECT_NAME": "1998-067XS", "OBJECT_ID": "1998-067XS", "EPOCH": "2025-12-26T15:31:52.020768", "MEAN_MOTION": 15.5132596, "ECCENTRICITY": 0.0002673, "INCLINATION": 51.6319, "RA_OF_ASC_NODE": 73.4106, "ARG_OF_PERICENTER": 274.6448, "MEAN_ANOMALY": 85.4236, "EPHEMERIS_TYPE": 0, "CLASSIFICATION_TYPE": "U", "NORAD_CAT_ID": 66906, "ELEMENT_SET_NO": 999, "REV_AT_EPOCH": 377, "BSTAR": 0.00048785, "MEAN_MOTION_DOT": 0.0002883, "MEAN_MOTION_DDOT": 0}, "tle": {"line1": "1 66906U 98067XS  25360.64712987  .00028830  00000+0  48785-3 0  9992", "line2": "2 66906  51.6319  73.4106 0002673 274.6448  85.4236 15.51325960  3770"}}, "geometry": {"type": "Point", "coordinates": [-110.8856771902794, 3.604465993878596]}}, {"type": "Feature", "properties": {"norad_id": 66907, "name": "1998-067XT", "group": "last-30-days", "lat": -50.67547589509556, "lon": -32.93774020275922, "alt_km": 410.2813684257908, "timestamp": "2025-12-26T22:28:04.499289+00:00", "meta": {"OBJECT_NAME": "1998-067XT", "OBJECT_ID": "1998-067XT", "EPOCH": "2025-12-26T12:05:04.890048", "MEAN_MOTION": 15.53165234, "ECCENTRICITY": 0.0003816, "INCLINATION": 51.6314, "RA_OF_ASC_NODE": 73.9516, "ARG_OF_PERICENTER": 309.8325, "MEAN_ANOMALY": 50.2329, "EPHEMERIS_TYPE": 0, "CLASSIFICATION_TYPE": "U", "NORAD_CAT_ID": 66907, "ELEMENT_SET_NO": 999, "REV_AT_EPOCH": 375, "BSTAR": 0.00096732, "MEAN_MOTION_DOT": 0.00061851, "MEAN_MOTION_DDOT": 0}, "tle": {"line1": "1 66907U 98067XT  25360.50352882  .00061851  00000+0  96732-3 0  9997", "line2": "2 66907  51.6314  73.9516 0003816 309.8325  50.2329 15.53165234  3750"}}, "geometry": {"type": "Point", "coordinates": [-32.93774020275922, -50.67547589509556]}}, {"type": "Feature", "properties": {"norad_id": 66908, "name": "1998-067XU", "group": "last-30-days", "lat": -51.52570556753196, "lon": -22.703343079812644, "alt_km": 409.8464099970488, "timestamp": "2025-12-26T22:28:04.499299+00:00", "meta": {"OBJECT_NAME": "1998-067XU", "OBJECT_ID": "1998-067XU", "EPOCH": "2025-12-26T18:14:01.548960", "MEAN_MOTION": 15.53257933, "ECCENTRICITY": 0.000387, "INCLINATION": 51.6313, "RA_OF_ASC_NODE": 72.6614, "ARG_OF_PERICENTER": 309.5614, "MEAN_ANOMALY": 50.5034, "EPHEMERIS_TYPE": 0, "CLASSIFICATION_TYPE": "U", "NORAD_CAT_ID": 66908, "ELEMENT_SET_NO": 999, "REV_AT_EPOCH": 379, "BSTAR": 0.00095802, "MEAN_MOTION_DOT": 0.00061456, "MEAN_MOTION_DDOT": 0}, "tle": {"line1": "1 66908U 98067XU  25360.75974015  .00061456  00000+0  95802-3 0  9991", "line2": "2 66908  51.6313  72.6614 0003870 309.5614  50.5034 15.53257933  3791"}}, "geometry": {"type": "Point", "coordinates": [-22.703343079812644, -51.52570556753196]}}]}